STARLINK-1260           
1 45404U 20019AW  26068.43645685  .00003834  00000+0  14152-3 0  9995
2 45404  53.1614 130.4178 0001820  93.3089 266.8120 15.30197736329939
2025-313BD              
1 67299U 25313BD  26068.62968741  .00081010  00000+0  27634-2 0  9995
2 67299  97.3970 145.2850 0007287 333.4514  26.6352 15.30002360 10838
